start=new Date('2021-09-23T00:00:00.000Z').valueOf();
sats=[{"ECCENTRICITY":"0.00022030","GP_ID":"185269135","ELEMENT_SET_NO":"999","SEMIMAJOR_AXIS":"6925.315","APOAPSIS":"548.705","RCS_SIZE":"LARGE","MEAN_ANOMALY":"155.1069","EPHEMERIS_TYPE":"0","PERIOD":"95.591","RA_OF_ASC_NODE":"163.8250","FILE":"3123736","DECAY_DATE":null,"MEAN_MOTION":"15.06411063","COUNTRY_CODE":"US","EPOCH":"2021-09-22T20:00:01.000224","PERIAPSIS":"545.654","BSTAR":"-0.00135070000000","CLASSIFICATION_TYPE":"U","LAUNCH_DATE":"2021-02-16","OBJECT_TYPE":"PAYLOAD","MEAN_MOTION_DDOT":"0.0000000000000","TIME_SYSTEM":"UTC","NORAD_CAT_ID":"47630","TLE_LINE2":"2 47630  53.0532 163.8250 0002203  73.9168 155.1069 15.06411063  3586","OBJECT_ID":"2021-012L","INCLINATION":"53.0532","ARG_OF_PERICENTER":"73.9168","SITE":"AFETR","REF_FRAME":"TEME","TLE_LINE1":"1 47630U 21012L   21265.83334491 -.00020350  00000-0 -13507-2 0  9997","OBJECT_NAME":"STARLINK-1983","MEAN_ELEMENT_THEORY":"SGP4","MEAN_MOTION_DOT":"-0.00020350","REV_AT_EPOCH":"358","CENTER_NAME":"EARTH"},{"REV_AT_EPOCH":"368","MEAN_MOTION_DOT":"-0.00962646","CENTER_NAME":"EARTH","OBJECT_NAME":"STARLINK-1985","MEAN_ELEMENT_THEORY":"SGP4","SITE":"AFETR","REF_FRAME":"TEME","TLE_LINE1":"1 47631U 21012M   21265.83334491 -.00962646  00000-0 -10679-1 0  9997","INCLINATION":"53.0425","ARG_OF_PERICENTER":"45.2210","OBJECT_ID":"2021-012M","TLE_LINE2":"2 47631  53.0425  94.6970 0001500  45.2210  62.6817 15.64860476  3681","NORAD_CAT_ID":"47631","MEAN_MOTION_DDOT":"0.0000000000000","TIME_SYSTEM":"UTC","OBJECT_TYPE":"PAYLOAD","BSTAR":"-0.01067900000000","CLASSIFICATION_TYPE":"U","LAUNCH_DATE":"2021-02-16","DECAY_DATE":null,"COUNTRY_CODE":"US","MEAN_MOTION":"15.64860476","EPOCH":"2021-09-22T20:00:01.000224","PERIAPSIS":"372.629","RA_OF_ASC_NODE":"94.6970","FILE":"3123736","MEAN_ANOMALY":"62.6817","EPHEMERIS_TYPE":"0","PERIOD":"92.021","RCS_SIZE":"MEDIUM","APOAPSIS":"374.655","SEMIMAJOR_AXIS":"6751.777","GP_ID":"185269363","ECCENTRICITY":"0.00015000","ELEMENT_SET_NO":"999"},{"MEAN_ANOMALY":"191.9386","EPHEMERIS_TYPE":"0","PERIOD":"91.820","APOAPSIS":"365.262","RCS_SIZE":"LARGE","SEMIMAJOR_AXIS":"6741.939","GP_ID":"185267635","ECCENTRICITY":"0.00021620","ELEMENT_SET_NO":"999","BSTAR":"-0.01092100000000","CLASSIFICATION_TYPE":"U","LAUNCH_DATE":"2021-02-16","COUNTRY_CODE":"US","DECAY_DATE":null,"MEAN_MOTION":"15.68286908","EPOCH":"2021-09-22T20:00:01.000224","PERIAPSIS":"362.347","FILE":"3123736","RA_OF_ASC_NODE":"94.5766","OBJECT_ID":"2021-012N","TLE_LINE2":"2 47632  53.0425  94.5766 0002162 321.6414 191.9386 15.68286908  3689","NORAD_CAT_ID":"47632","MEAN_MOTION_DDOT":"0.0000000000000","TIME_SYSTEM":"UTC","OBJECT_TYPE":"PAYLOAD","REV_AT_EPOCH":"368","MEAN_MOTION_DOT":"-0.01114057","CENTER_NAME":"EARTH","OBJECT_NAME":"STARLINK-1992","MEAN_ELEMENT_THEORY":"SGP4","SITE":"AFETR","REF_FRAME":"TEME","TLE_LINE1":"1 47632U 21012N   21265.83334491 -.01114057  00000-0 -10921-1 0  9994","INCLINATION":"53.0425","ARG_OF_PERICENTER":"321.6414"},{"CENTER_NAME":"EARTH","MEAN_MOTION_DOT":"-0.00089411","REV_AT_EPOCH":"358","MEAN_ELEMENT_THEORY":"SGP4","OBJECT_NAME":"STARLINK-2009","TLE_LINE1":"1 47633U 21012P   21265.83334491 -.00089411  00000-0 -60468-2 0  9991","SITE":"AFETR","REF_FRAME":"TEME","ARG_OF_PERICENTER":"74.0130","INCLINATION":"53.0536","OBJECT_ID":"2021-012P","NORAD_CAT_ID":"47633","TLE_LINE2":"2 47633  53.0536 183.8428 0001831  74.0130  60.1711 15.06476560  3581","TIME_SYSTEM":"UTC","MEAN_MOTION_DDOT":"0.0000000000000","OBJECT_TYPE":"PAYLOAD","LAUNCH_DATE":"2021-02-16","CLASSIFICATION_TYPE":"U","BSTAR":"-0.00604680000000","PERIAPSIS":"545.711","EPOCH":"2021-09-22T20:00:01.000224","COUNTRY_CODE":"US","DECAY_DATE":null,"MEAN_MOTION":"15.06476560","FILE":"3123736","RA_OF_ASC_NODE":"183.8428","PERIOD":"95.587","EPHEMERIS_TYPE":"0","MEAN_ANOMALY":"60.1711","RCS_SIZE":"LARGE","APOAPSIS":"548.247","SEMIMAJOR_AXIS":"6925.114","ELEMENT_SET_NO":"999","ECCENTRICITY":"0.00018310","GP_ID":"185268384"},{"OBJECT_NAME":"STARLINK-2010","MEAN_ELEMENT_THEORY":"SGP4","MEAN_MOTION_DOT":"-0.00047018","REV_AT_EPOCH":"358","CENTER_NAME":"EARTH","INCLINATION":"53.0554","ARG_OF_PERICENTER":"73.4171","SITE":"AFETR","REF_FRAME":"TEME","TLE_LINE1":"1 47634U 21012Q   21265.83334491 -.00047018  00000-0 -31562-2 0  9992","TLE_LINE2":"2 47634  53.0554 183.8431 0001964  73.4171 180.6333 15.06425793  3581","NORAD_CAT_ID":"47634","OBJECT_ID":"2021-012Q","OBJECT_TYPE":"PAYLOAD","TIME_SYSTEM":"UTC","MEAN_MOTION_DDOT":"0.0000000000000","EPOCH":"2021-09-22T20:00:01.000224","PERIAPSIS":"545.774","DECAY_DATE":null,"MEAN_MOTION":"15.06425793","COUNTRY_CODE":"US","LAUNCH_DATE":"2021-02-16","BSTAR":"-0.00315620000000","CLASSIFICATION_TYPE":"U","FILE":"3123736","RA_OF_ASC_NODE":"183.8431","APOAPSIS":"548.495","RCS_SIZE":"LARGE","PERIOD":"95.591","MEAN_ANOMALY":"180.6333","EPHEMERIS_TYPE":"0","ELEMENT_SET_NO":"999","ECCENTRICITY":"0.00019640","GP_ID":"185268636","SEMIMAJOR_AXIS":"6925.270"},{"RA_OF_ASC_NODE":"94.6867","FILE":"3123736","BSTAR":"-0.01143900000000","CLASSIFICATION_TYPE":"U","LAUNCH_DATE":"2021-02-16","DECAY_DATE":null,"COUNTRY_CODE":"US","MEAN_MOTION":"15.63088528","EPOCH":"2021-09-22T20:00:01.000224","PERIAPSIS":"377.778","SEMIMAJOR_AXIS":"6756.879","ECCENTRICITY":"0.00014290","GP_ID":"185268864","ELEMENT_SET_NO":"999","MEAN_ANOMALY":"38.4028","EPHEMERIS_TYPE":"0","PERIOD":"92.125","APOAPSIS":"379.709","RCS_SIZE":"LARGE","SITE":"AFETR","REF_FRAME":"TEME","TLE_LINE1":"1 47635U 21012R   21265.83334491 -.00961046  00000-0 -11439-1 0  9999","INCLINATION":"53.0424","ARG_OF_PERICENTER":"46.9526","REV_AT_EPOCH":"368","MEAN_MOTION_DOT":"-0.00961046","CENTER_NAME":"EARTH","OBJECT_NAME":"STARLINK-2012","MEAN_ELEMENT_THEORY":"SGP4","MEAN_MOTION_DDOT":"0.0000000000000","TIME_SYSTEM":"UTC","OBJECT_TYPE":"PAYLOAD","OBJECT_ID":"2021-012R","NORAD_CAT_ID":"47635","TLE_LINE2":"2 47635  53.0424  94.6867 0001429  46.9526  38.4028 15.63088528  3681"},{"OBJECT_TYPE":"PAYLOAD","TIME_SYSTEM":"UTC","MEAN_MOTION_DDOT":"0.0000000000000","NORAD_CAT_ID":"47636","TLE_LINE2":"2 47636  53.0525 163.8279 0005251 245.9239  78.1117 15.06423961  3589","OBJECT_ID":"2021-012S","ARG_OF_PERICENTER":"245.9239","INCLINATION":"53.0525","TLE_LINE1":"1 47636U 21012S   21265.83334491 -.00022751  00000-0 -15118-2 0  9990","REF_FRAME":"TEME","SITE":"AFETR","MEAN_ELEMENT_THEORY":"SGP4","OBJECT_NAME":"STARLINK-2013","CENTER_NAME":"EARTH","REV_AT_EPOCH":"358","MEAN_MOTION_DOT":"-0.00022751","ELEMENT_SET_NO":"999","ECCENTRICITY":"0.00052510","GP_ID":"185268135","SEMIMAJOR_AXIS":"6925.275","APOAPSIS":"550.777","RCS_SIZE":"LARGE","PERIOD":"95.591","EPHEMERIS_TYPE":"0","MEAN_ANOMALY":"78.1117","FILE":"3123736","RA_OF_ASC_NODE":"163.8279","PERIAPSIS":"543.504","EPOCH":"2021-09-22T20:00:01.000224","DECAY_DATE":null,"COUNTRY_CODE":"US","MEAN_MOTION":"15.06423961","LAUNCH_DATE":"2021-02-16","CLASSIFICATION_TYPE":"U","BSTAR":"-0.00151180000000"},{"TIME_SYSTEM":"UTC","MEAN_MOTION_DDOT":"0.0000000000000","OBJECT_TYPE":"PAYLOAD","OBJECT_ID":"2021-012T","TLE_LINE2":"2 47637  53.0545 163.8286 0001978  48.3670  75.4536 15.06423592  3581","NORAD_CAT_ID":"47637","TLE_LINE1":"1 47637U 21012T   21265.83334491 -.00024427  00000-0 -16255-2 0  9996","SITE":"AFETR","REF_FRAME":"TEME","ARG_OF_PERICENTER":"48.3670","INCLINATION":"53.0545","CENTER_NAME":"EARTH","MEAN_MOTION_DOT":"-0.00024427","REV_AT_EPOCH":"358","MEAN_ELEMENT_THEORY":"SGP4","OBJECT_NAME":"STARLINK-2014","SEMIMAJOR_AXIS":"6925.276","ELEMENT_SET_NO":"999","GP_ID":"185267885","ECCENTRICITY":"0.00019780","PERIOD":"95.591","EPHEMERIS_TYPE":"0","MEAN_ANOMALY":"75.4536","APOAPSIS":"548.511","RCS_SIZE":"LARGE","FILE":"3123736","RA_OF_ASC_NODE":"163.8286","LAUNCH_DATE":"2021-02-16","CLASSIFICATION_TYPE":"U","BSTAR":"-0.00162550000000","PERIAPSIS":"545.771","EPOCH":"2021-09-22T20:00:01.000224","DECAY_DATE":null,"MEAN_MOTION":"15.06423592","COUNTRY_CODE":"US"},{"OBJECT_NAME":"STARLINK-2015","MEAN_ELEMENT_THEORY":"SGP4","MEAN_MOTION_DOT":"-0.00961864","REV_AT_EPOCH":"368","CENTER_NAME":"EARTH","INCLINATION":"53.0400","ARG_OF_PERICENTER":"37.8316","SITE":"AFETR","REF_FRAME":"TEME","TLE_LINE1":"1 47638U 21012U   21265.83334491 -.00961864  00000-0 -10970-1 0  9999","NORAD_CAT_ID":"47638","TLE_LINE2":"2 47638  53.0400  94.6383 0001648  37.8316  60.2870 15.64164604  3689","OBJECT_ID":"2021-012U","OBJECT_TYPE":"PAYLOAD","MEAN_MOTION_DDOT":"0.0000000000000","TIME_SYSTEM":"UTC","DECAY_DATE":null,"MEAN_MOTION":"15.64164604","COUNTRY_CODE":"US","EPOCH":"2021-09-22T20:00:01.000224","PERIAPSIS":"374.531","BSTAR":"-0.01097000000000","CLASSIFICATION_TYPE":"U","LAUNCH_DATE":"2021-02-16","FILE":"3123736","RA_OF_ASC_NODE":"94.6383","RCS_SIZE":"LARGE","APOAPSIS":"376.757","MEAN_ANOMALY":"60.2870","EPHEMERIS_TYPE":"0","PERIOD":"92.062","GP_ID":"185269136","ECCENTRICITY":"0.00016480","ELEMENT_SET_NO":"999","SEMIMAJOR_AXIS":"6753.779"},{"CENTER_NAME":"EARTH","MEAN_MOTION_DOT":"-0.00020213","REV_AT_EPOCH":"358","MEAN_ELEMENT_THEORY":"SGP4","OBJECT_NAME":"STARLINK-2016","TLE_LINE1":"1 47639U 21012V   21265.83334491 -.00020213  00000-0 -13414-2 0  9991","REF_FRAME":"TEME","SITE":"AFETR","ARG_OF_PERICENTER":"69.4413","INCLINATION":"53.0530","OBJECT_ID":"2021-012V","TLE_LINE2":"2 47639  53.0530 163.8243 0001969  69.4413 174.4854 15.06413612  3584","NORAD_CAT_ID":"47639","TIME_SYSTEM":"UTC","MEAN_MOTION_DDOT":"0.0000000000000","OBJECT_TYPE":"PAYLOAD","LAUNCH_DATE":"2021-02-16","CLASSIFICATION_TYPE":"U","BSTAR":"-0.00134140000000","PERIAPSIS":"545.808","EPOCH":"2021-09-22T20:00:01.000224","MEAN_MOTION":"15.06413612","DECAY_DATE":null,"COUNTRY_CODE":"US","FILE":"3123736","RA_OF_ASC_NODE":"163.8243","PERIOD":"95.591","EPHEMERIS_TYPE":"0","MEAN_ANOMALY":"174.4854","RCS_SIZE":"LARGE","APOAPSIS":"548.535","SEMIMAJOR_AXIS":"6925.307","ELEMENT_SET_NO":"999","GP_ID":"185269364","ECCENTRICITY":"0.00019690"}];
